GLOBALSTAR M045         
1 25676U 99019A   24231.90287149 -.00000110  00000+0 -14488-3 0  9997
2 25676  51.9966  86.8315 0001016  44.6843  57.3608 12.27043370156282
GLOBALSTAR M019         
1 25677U 99019B   24231.08272288 -.00000074  00000+0  16759-3 0  9996
2 25677  51.9849 198.2078 0001142  54.8029  24.4865 12.13859350148331
GLOBALSTAR M044         
1 25678U 99019C   24231.95229223 -.00000041  00000+0  59553-3 0  9997
2 25678  51.9958 109.3417 0006073 170.5741 293.6515 11.90236720135330
GLOBALSTAR M042         
1 25679U 99019D   24231.84359508 -.00000065  00000+0  25738-3 0  9990
2 25679  51.9994 184.4663 0003236  34.1777   0.4618 12.22067376148292
GLOBALSTAR M025         
1 25770U 99031A   24231.91232958 -.00000046  00000+0  66646-3 0  9995
2 25770  51.9802 139.5109 0002025   9.2666  69.9324 11.22552514447763
GLOBALSTAR M049         
1 25771U 99031B   24231.89610485 -.00000071  00000+0 -21295-3 0  9998
2 25771  51.9854 159.1191 0002562 232.8707 127.1855 11.12107041 83791
GLOBALSTAR M047         
1 25772U 99031C   24231.87172964 -.00000078  00000+0 -23015-3 0  9991
2 25772  51.9806 185.0264 0016206 102.2625 257.9996 11.31921991436875
GLOBALSTAR M052         
1 25773U 99031D   24231.52025036 -.00000013  00000+0  17651-2 0  9997
2 25773  51.9849 272.9083 0002352  30.2463 119.2606 11.15052869444749
